$$SOE
2460728.500000000, A.D. 2025-Feb-22 00:00:00.0000, 1.244553711892681E+08, -1.857508524621174E+08, 1.620160234157947E+07,
2460735.500000000, A.D. 2025-Mar-01 00:00:00.0000, 1.379198614923484E+08, -1.758323883230207E+08, 1.452032036820949E+07,
2460742.500000000, A.D. 2025-Mar-08 00:00:00.0000, 1.507885974682793E+08, -1.651544604446625E+08, 1.277631791116118E+07,
2460749.500000000, A.D. 2025-Mar-15 00:00:00.0000, 1.630065501738501E+08, -1.537637263986610E+08, 1.097716689443754E+07,
2460756.500000000, A.D. 2025-Mar-22 00:00:00.0000, 1.745243333984067E+08, -1.417124360041371E+08, 9.130850541394457E+06,
2460763.500000000, A.D. 2025-Mar-29 00:00:00.0000, 1.852989075639057E+08, -1.290575231960083E+08, 7.245630591123514E+06,
2460770.500000000, A.D. 2025-Apr-05 00:00:00.0000, 1.952940927708338E+08, -1.158595928838815E+08, 5.329910332018025E+06,
2460777.500000000, A.D. 2025-Apr-12 00:00:00.0000, 2.044808752543761E+08, -1.021818498409560E+08, 3.392099593171835E+06,
2460784.500000000, A.D. 2025-Apr-19 00:00:00.0000, 2.128375063903681E+08, -8.808901828764312E+07, 1.440487133424327E+06,
2460791.500000000, A.D. 2025-Apr-26 00:00:00.0000, 2.203494060191814E+08, -7.364629694086337E+07, -5.168749808443598E+05,
2460798.500000000, A.D. 2025-May-03 00:00:00.0000, 2.270088917602439E+08, -5.891838772036453E+07, -2.472271521011010E+06,
2460805.500000000, A.D. 2025-May-10 00:00:00.0000, 2.328147631243707E+08, -4.396862783134684E+07, -4.418406532756872E+06,
2460812.500000000, A.D. 2025-May-17 00:00:00.0000, 2.377717733347538E+08, -2.885824551140321E+07, -6.348467088179536E+06,
2460819.500000000, A.D. 2025-May-24 00:00:00.0000, 2.418900230027546E+08, -1.364575031534048E+07, -8.256168517256366E+06,
2460826.500000000, A.D. 2025-May-31 00:00:00.0000, 2.451843085931169E+08, 1.613540103745643E+06, -1.013578219462570E+07,
2460833.500000000, A.D. 2025-Jun-07 00:00:00.0000, 2.476734544717478E+08, 1.686784276383130E+07, -1.198214747989919E+07,
2460840.500000000, A.D. 2025-Jun-14 00:00:00.0000, 2.493796508642438E+08, 3.206913118300040E+07, -1.379066981078512E+07,
2460847.500000000, A.D. 2025-Jun-21 00:00:00.0000, 2.503278185000173E+08, 4.717324673064143E+07, -1.555730769810512E+07,
2460854.500000000, A.D. 2025-Jun-28 00:00:00.0000, 2.505450174605094E+08, 6.213991697933541E+07, -1.727855114963996E+07,
2460861.500000000, A.D. 2025-Jul-05 00:00:00.0000, 2.500599083476726E+08, 7.693269954156671E+07, -1.895139346507497E+07,
2460868.500000000, A.D. 2025-Jul-12 00:00:00.0000, 2.489022700665158E+08, 9.151886646681996E+07, -2.057329839838829E+07,
2460875.500000000, A.D. 2025-Jul-19 00:00:00.0000, 2.471025764694763E+08, 1.058692433238147E+08, -2.214216451990407E+07,
2460882.500000000, A.D. 2025-Jul-26 00:00:00.0000, 2.446916314552940E+08, 1.199580159762793E+08, -2.365628827498822E+07,
2460889.500000000, A.D. 2025-Aug-02 00:00:00.0000, 2.417002600004575E+08, 1.337625162873707E+08, -2.511432692275583E+07,
2460896.500000000, A.D. 2025-Aug-09 00:00:00.0000, 2.381590512187178E+08, 1.472629960730678E+08, -2.651526226253743E+07,
2460903.500000000, A.D. 2025-Aug-16 00:00:00.0000, 2.340981488032664E+08, 1.604423967937834E+08, -2.785836582473721E+07,
2460910.500000000, A.D. 2025-Aug-23 00:00:00.0000, 2.295470840682108E+08, 1.732861209182323E+08, -2.914316601793902E+07,
2460917.500000000, A.D. 2025-Aug-30 00:00:00.0000, 2.245346467934248E+08, 1.857818101215999E+08, -3.036941750813560E+07,
2460924.500000000, A.D. 2025-Sep-06 00:00:00.0000, 2.190887874617707E+08, 1.979191345015155E+08, -3.153707278405697E+07,
2460931.500000000, A.D. 2025-Sep-13 00:00:00.0000, 2.132365445108550E+08, 2.096895924992843E+08, -3.264625601561809E+07,
2460938.500000000, A.D. 2025-Sep-20 00:00:00.0000, 2.070039955698287E+08, 2.210863212261587E+08, -3.369723962211322E+07,
2460945.500000000, A.D. 2025-Sep-27 00:00:00.0000, 2.004162298539708E+08, 2.321039209833723E+08, -3.469042331411630E+07,
2460952.500000000, A.D. 2025-Oct-04 00:00:00.0000, 1.934973362539973E+08, 2.427382947030548E+08, -3.562631525982732E+07,
2460959.500000000, A.D. 2025-Oct-11 00:00:00.0000, 1.862704037471755E+08, 2.529865011909349E+08, -3.650551527555604E+07,
2460966.500000000, A.D. 2025-Oct-18 00:00:00.0000, 1.787575318331449E+08, 2.628466214535331E+08, -3.732869993305676E+07,
2460973.500000000, A.D. 2025-Oct-25 00:00:00.0000, 1.709798489352787E+08, 2.723176374943744E+08, -3.809660943477640E+07,
2460980.500000000, A.D. 2025-Nov-01 00:00:00.0000, 1.629575369521269E+08, 2.813993228508543E+08, -3.881003609919399E+07,
2460987.500000000, A.D. 2025-Nov-08 00:00:00.0000, 1.547098604431668E+08, 2.900921440298931E+08, -3.946981430648772E+07,
2460994.500000000, A.D. 2025-Nov-15 00:00:00.0000, 1.462551993123343E+08, 2.983971719451814E+08, -4.007681177466162E+07,
2461001.500000000, A.D. 2025-Nov-22 00:00:00.0000, 1.376110843375346E+08, 3.063160027384884E+08, -4.063192204609679E+07,
2461008.500000000, A.D. 2025-Nov-29 00:00:00.0000, 1.287942345366078E+08, 3.138506883020741E+08, -4.113605794924119E+07,
2461015.500000000, A.D. 2025-Dec-06 00:00:00.0000, 1.198205933985952E+08, 3.210036755748863E+08, -4.159014571779251E+07,
2461022.500000000, A.D. 2025-Dec-13 00:00:00.0000, 1.107053638503929E+08, 3.277777505021468E+08, -4.199511997271809E+07,
2461029.500000000, A.D. 2025-Dec-20 00:00:00.0000, 1.014630450166398E+08, 3.341759870079727E+08, -4.235191971042407E+07,
2461036.500000000, A.D. 2025-Dec-27 00:00:00.0000, 9.210746936912321E+07, 3.402017029417780E+08, -4.266148490348953E+07,
2461043.500000000, A.D. 2026-Jan-03 00:00:00.0000, 8.265183855340263E+07, 3.458584217998701E+08, -4.292475355423114E+07,
2461050.500000000, A.D. 2026-Jan-10 00:00:00.0000, 7.310875781670348E+07, 3.511498390131493E+08, -4.314265919896400E+07,
2461057.500000000, A.D. 2026-Jan-17 00:00:00.0000, 6.349026913919944E+07, 3.560797922269175E+08, -4.331612883148050E+07,
2461064.500000000, A.D. 2026-Jan-24 00:00:00.0000, 5.380788305927699E+07, 3.606522351574940E+08, -4.344608119714147E+07,
2461071.500000000, A.D. 2026-Jan-31 00:00:00.0000, 4.407260916283447E+07, 3.648712146225774E+08, -4.353342541239993E+07,
2461078.500000000, A.D. 2026-Feb-07 00:00:00.0000, 3.429498527169193E+07, 3.687408503321926E+08, -4.357905987772316E+07,
2461085.500000000, A.D. 2026-Feb-14 00:00:00.0000, 2.448510557897094E+07, 3.722653171062593E+08, -4.358387147119024E+07,
2461092.500000000, A.D. 2026-Feb-21 00:00:00.0000, 1.465264813055098E+07, 3.754488298122129E+08, -4.354873497893915E+07,
2461099.500000000, A.D. 2026-Feb-28 00:00:00.0000, 4.806900594357121E+06, 3.782956319242676E+08, -4.347451254121073E+07,
2461106.500000000, A.D. 2026-Mar-07 00:00:00.0000, -5.043217702949835E+06, 3.808099855240844E+08, -4.336205305932906E+07,
2461113.500000000, A.D. 2026-Mar-14 00:00:00.0000, -1.488913465749447E+07, 3.829961602032770E+08, -4.321219198559220E+07,
2461120.500000000, A.D. 2026-Mar-21 00:00:00.0000, -2.472260336056058E+07, 3.848584235920616E+08, -4.302575140531304E+07,
2461127.500000000, A.D. 2026-Mar-28 00:00:00.0000, -3.453568111745409E+07, 3.864010343863686E+08, -4.280354012755685E+07,
2461134.500000000, A.D. 2026-Apr-04 00:00:00.0000, -4.432071006253441E+07, 3.876282367649496E+08, -4.254635379372716E+07,
2461141.500000000, A.D. 2026-Apr-11 00:00:00.0000, -5.407029904239935E+07, 3.885442557109807E+08, -4.225497504617673E+07,
2461148.500000000, A.D. 2026-Apr-18 00:00:00.0000, -6.377730655249516E+07, 3.891532931205410E+08, -4.193017376137060E+07,
2461155.500000000, A.D. 2026-Apr-25 00:00:00.0000, -7.343482462538987E+07, 3.894595246128945E+08, -4.157270734096311E+07,
2461162.500000000, A.D. 2026-May-02 00:00:00.0000, -8.303616358563906E+07, 3.894670969223015E+08, -4.118332105700281E+07,
2461169.500000000, A.D. 2026-May-09 00:00:00.0000, -9.257483749613421E+07, 3.891801257237472E+08, -4.076274845992590E+07,
2461176.500000000, A.D. 2026-May-16 00:00:00.0000, -1.020445498722277E+08, 3.886026939607910E+08, -4.031171186610539E+07,
2461183.500000000, A.D. 2026-May-23 00:00:00.0000, -1.114391795692477E+08, 3.877388516408485E+08, -3.983092284183094E+07,
2461190.500000000, A.D. 2026-May-30 00:00:00.0000, -1.207527688782285E+08, 3.865926173718465E+08, -3.932108246461980E+07,
2461197.500000000, A.D. 2026-Jun-06 00:00:00.0000, -1.299795141003737E+08, 3.851679783230944E+08, -3.878288159743381E+07,
2461204.500000000, A.D. 2026-Jun-13 00:00:00.0000, -1.391137548927562E+08, 3.834688887666745E+08, -3.821700149218841E+07,
2461211.500000000, A.D. 2026-Jun-20 00:00:00.0000, -1.481499628490995E+08, 3.814992700934030E+08, -3.762411443592653E+07,
2461218.500000000, A.D. 2026-Jun-27 00:00:00.0000, -1.570827309752702E+08, 3.792630119349858E+08, -3.700488431030402E+07,
2461225.500000000, A.D. 2026-Jul-04 00:00:00.0000, -1.659067640234463E+08, 3.767639735895605E+08, -3.635996712581661E+07,
2461232.500000000, A.D. 2026-Jul-11 00:00:00.0000, -1.746168693984190E+08, 3.740059855948263E+08, -3.569001156340355E+07,
2461239.500000000, A.D. 2026-Jul-18 00:00:00.0000, -1.832079485129478E+08, 3.709928514548895E+08, -3.499565952894454E+07,
2461246.500000000, A.D. 2026-Jul-25 00:00:00.0000, -1.916749885391215E+08, 3.677283495074124E+08, -3.427754672213113E+07,
2461253.500000000, A.D. 2026-Aug-01 00:00:00.0000, -2.000130544806630E+08, 3.642162348696954E+08, -3.353630322775371E+07,
2461260.500000000, A.D. 2026-Aug-08 00:00:00.0000, -2.082172813259616E+08, 3.604602414170255E+08, -3.277255415189481E+07,
2461267.500000000, A.D. 2026-Aug-15 00:00:00.0000, -2.162828658433687E+08, 3.564640842351490E+08, -3.198692030430000E+07,
2461274.500000000, A.D. 2026-Aug-22 00:00:00.0000, -2.242050587588322E+08, 3.522314637627125E+08, -3.118001875773658E+07,
2461281.500000000, A.D. 2026-Aug-29 00:00:00.0000, -2.319791595845795E+08, 3.477660702492860E+08, -3.035246318746458E+07,
2461288.500000000, A.D. 2026-Sep-05 00:00:00.0000, -2.396005119427697E+08, 3.430715856577819E+08, -2.950486442093427E+07,
2461295.500000000, A.D. 2026-Sep-12 00:00:00.0000, -2.470644969111684E+08, 3.381516855024718E+08, -2.863783121866967E+07,
$$EOE